{"fetched_at":"2026-03-29T16:36:15Z","count":15609,"tles":[{"name":"STARLINK-5690","line1":"1 55480U 23015AH  26087.67581470  .00001445  00000+0  63536-4 0  9994","line2":"2 55480  43.0007 232.0228 0001466 266.4247  93.6437 15.26745744173508","category":"Starlink"}]}